ONEWEB-0066             
1 45424U 20020A   24100.92948647 -.00000408  00000+0 -11864-2 0  9994
2 45424  87.9030 179.8222 0001633 109.4721 250.6584 13.11416439198052
ONEWEB-0067             
1 45425U 20020B   24100.49524616 -.00000017  00000+0 -82520-4 0  9998
2 45425  87.9025 179.8704 0001945  95.5162 264.6187 13.11421177198051
ONEWEB-0080             
1 45426U 20020C   24100.44412859  .00000552  00000+0  15225-2 0  9997
2 45426  87.9033 179.9211 0001775 114.9014 245.2298 13.11416608198015
ONEWEB-0090             
1 45427U 20020D   24100.91975663 -.00000053  00000+0 -18470-3 0  9991
2 45427  87.9036 179.8078 0001936 107.0560 253.0780 13.11415463198041
ONEWEB-0061             
1 45428U 20020E   24100.49442907 -.00000597  00000+0 -17190-2 0  9995
2 45428  87.9032 179.8927 0001928 103.2967 256.8376 13.11419815197946
ONEWEB-0081             
1 45429U 20020F   24100.93273093 -.00000428  00000+0 -12421-2 0  9998
2 45429  87.9029 179.8231 0001773 100.7485 259.3843 13.11414082198114
ONEWEB-0069             
1 45430U 20020G   24100.92300461 -.00000163  00000+0 -49516-3 0  9991
2 45430  87.9031 179.8136 0002012 105.2559 254.8791 13.11415616198040
ONEWEB-0031             
1 45431U 20020H   24100.66490427  .00000518  00000+0  14252-2 0  9995
2 45431  87.9039 179.8689 0002282 101.9773 258.1611 13.11418007197990
